start=new Date('2022-05-19T00:00:00.000Z').valueOf();
sats=[{"EPHEMERIS_TYPE":"0","MEAN_ANOMALY":"302.8490","COUNTRY_CODE":"US","PERIOD":"95.593","TLE_LINE1":"1 47357U 21005J   22138.54898630 -.00000833  00000-0 -37019-4 0  9993","INCLINATION":"53.0550","CLASSIFICATION_TYPE":"U","OBJECT_ID":"2021-005J","BSTAR":"-0.00003701900000","MEAN_MOTION_DDOT":"0.0000000000000","TLE_LINE2":"2 47357  53.0550 186.6860 0001665  57.2660 302.8490 15.06392386 73363","DECAY_DATE":null,"OBJECT_NAME":"STARLINK-2050","EPOCH":"2022-05-18T13:10:32.416320","ECCENTRICITY":"0.00016650","ARG_OF_PERICENTER":"57.2660","RA_OF_ASC_NODE":"186.6860","REV_AT_EPOCH":"7336","NORAD_CAT_ID":"47357","TIME_SYSTEM":"UTC","RCS_SIZE":"LARGE","CENTER_NAME":"EARTH","MEAN_ELEMENT_THEORY":"SGP4","FILE":"3451871","GP_ID":"203872423","MEAN_MOTION_DOT":"-0.00000833","PERIAPSIS":"546.084","LAUNCH_DATE":"2021-01-20","APOAPSIS":"548.390","REF_FRAME":"TEME","SEMIMAJOR_AXIS":"6925.372","ELEMENT_SET_NO":"999","MEAN_MOTION":"15.06392386","OBJECT_TYPE":"PAYLOAD","SITE":"AFETR"},{"MEAN_ELEMENT_THEORY":"SGP4","FILE":"3452356","CENTER_NAME":"EARTH","NORAD_CAT_ID":"47358","TIME_SYSTEM":"UTC","RCS_SIZE":"LARGE","REV_AT_EPOCH":"7381","OBJECT_TYPE":"PAYLOAD","SITE":"AFETR","ELEMENT_SET_NO":"999","MEAN_MOTION":"15.06390252","APOAPSIS":"548.422","LAUNCH_DATE":"2021-01-20","REF_FRAME":"TEME","SEMIMAJOR_AXIS":"6925.378","GP_ID":"203904096","MEAN_MOTION_DOT":"0.00000048","PERIAPSIS":"546.065","BSTAR":"0.00002216100000","INCLINATION":"53.0548","CLASSIFICATION_TYPE":"U","OBJECT_ID":"2021-005K","MEAN_ANOMALY":"313.6561","COUNTRY_CODE":"US","PERIOD":"95.593","TLE_LINE1":"1 47358U 21005K   22138.75079617  .00000048  00000-0  22161-4 0  9991","EPHEMERIS_TYPE":"0","ARG_OF_PERICENTER":"46.4569","RA_OF_ASC_NODE":"155.7941","EPOCH":"2022-05-18T18:01:08.789088","ECCENTRICITY":"0.00017020","DECAY_DATE":null,"OBJECT_NAME":"STARLINK-2055","TLE_LINE2":"2 47358  53.0548 155.7941 0001702  46.4569 313.6561 15.06390252 73817","MEAN_MOTION_DDOT":"0.0000000000000"},{"DECAY_DATE":null,"OBJECT_NAME":"STARLINK-2069","MEAN_MOTION_DDOT":"0.0000000000000","TLE_LINE2":"2 47359  53.0526 180.4349 0001819  58.8200 301.2967 15.06395185 74138","RA_OF_ASC_NODE":"180.4349","ARG_OF_PERICENTER":"58.8200","ECCENTRICITY":"0.00018190","EPOCH":"2022-05-18T19:51:56.415456","COUNTRY_CODE":"US","TLE_LINE1":"1 47359U 21005L   22138.82773629  .00001147  00000-0  95873-4 0  9995","PERIOD":"95.592","MEAN_ANOMALY":"301.2967","EPHEMERIS_TYPE":"0","BSTAR":"0.00009587300000","CLASSIFICATION_TYPE":"U","OBJECT_ID":"2021-005L","INCLINATION":"53.0526","REF_FRAME":"TEME","SEMIMAJOR_AXIS":"6925.363","LAUNCH_DATE":"2021-01-20","APOAPSIS":"548.488","GP_ID":"203882131","MEAN_MOTION_DOT":"0.00001147","PERIAPSIS":"545.969","SITE":"AFETR","OBJECT_TYPE":"PAYLOAD","MEAN_MOTION":"15.06395185","ELEMENT_SET_NO":"999","TIME_SYSTEM":"UTC","RCS_SIZE":"LARGE","NORAD_CAT_ID":"47359","REV_AT_EPOCH":"7413","FILE":"3452280","MEAN_ELEMENT_THEORY":"SGP4","CENTER_NAME":"EARTH"},{"TLE_LINE2":"2 47360  53.0550 148.9358 0002173  50.6384 309.4797 15.06398415 73952","MEAN_MOTION_DDOT":"0.0000000000000","DECAY_DATE":null,"OBJECT_NAME":"STARLINK-2070","ECCENTRICITY":"0.00021730","EPOCH":"2022-05-19T03:58:55.441344","RA_OF_ASC_NODE":"148.9358","ARG_OF_PERICENTER":"50.6384","EPHEMERIS_TYPE":"0","COUNTRY_CODE":"US","TLE_LINE1":"1 47360U 21005M   22139.16591946  .00001562  00000-0  12373-3 0  9999","PERIOD":"95.592","MEAN_ANOMALY":"309.4797","CLASSIFICATION_TYPE":"U","OBJECT_ID":"2021-005M","INCLINATION":"53.0550","BSTAR":"0.00012373000000","GP_ID":"203913059","MEAN_MOTION_DOT":"0.00001562","PERIAPSIS":"545.714","REF_FRAME":"TEME","SEMIMAJOR_AXIS":"6925.353","LAUNCH_DATE":"2021-01-20","APOAPSIS":"548.723","MEAN_MOTION":"15.06398415","ELEMENT_SET_NO":"999","SITE":"AFETR","OBJECT_TYPE":"PAYLOAD","REV_AT_EPOCH":"7395","TIME_SYSTEM":"UTC","RCS_SIZE":"LARGE","NORAD_CAT_ID":"47360","CENTER_NAME":"EARTH","FILE":"3452563","MEAN_ELEMENT_THEORY":"SGP4"},{"RA_OF_ASC_NODE":"154.2680","ARG_OF_PERICENTER":"47.4715","ECCENTRICITY":"0.00017550","EPOCH":"2022-05-19T02:09:27.300384","DECAY_DATE":null,"OBJECT_NAME":"STARLINK-2071","MEAN_MOTION_DDOT":"0.0000000000000","TLE_LINE2":"2 47361  53.0560 154.2680 0001755  47.4715 312.6422 15.06396498 74815","BSTAR":"0.00013498000000","CLASSIFICATION_TYPE":"U","OBJECT_ID":"2021-005N","INCLINATION":"53.0560","COUNTRY_CODE":"US","TLE_LINE1":"1 47361U 21005N   22139.08989931  .00001729  00000-0  13498-3 0  9990","PERIOD":"95.592","MEAN_ANOMALY":"312.6422","EPHEMERIS_TYPE":"0","SITE":"AFETR","OBJECT_TYPE":"PAYLOAD","MEAN_MOTION":"15.06396498","ELEMENT_SET_NO":"999","REF_FRAME":"TEME","SEMIMAJOR_AXIS":"6925.359","LAUNCH_DATE":"2021-01-20","APOAPSIS":"548.440","GP_ID":"203913051","MEAN_MOTION_DOT":"0.00001729","PERIAPSIS":"546.009","FILE":"3452563","MEAN_ELEMENT_THEORY":"SGP4","CENTER_NAME":"EARTH","TIME_SYSTEM":"UTC","RCS_SIZE":"LARGE","NORAD_CAT_ID":"47361","REV_AT_EPOCH":"7481"},{"APOAPSIS":"548.375","LAUNCH_DATE":"2021-01-20","SEMIMAJOR_AXIS":"6925.359","REF_FRAME":"TEME","MEAN_MOTION_DOT":"0.00000459","PERIAPSIS":"546.072","GP_ID":"203877357","OBJECT_TYPE":"PAYLOAD","SITE":"AFETR","ELEMENT_SET_NO":"999","MEAN_MOTION":"15.06396750","NORAD_CAT_ID":"47362","RCS_SIZE":"LARGE","TIME_SYSTEM":"UTC","REV_AT_EPOCH":"7335","MEAN_ELEMENT_THEORY":"SGP4","FILE":"3452115","CENTER_NAME":"EARTH","OBJECT_NAME":"STARLINK-2076","DECAY_DATE":null,"MEAN_MOTION_DDOT":"0.0000000000000","TLE_LINE2":"2 47362  53.0543 187.0409 0001663  57.5646 302.5504 15.06396750 73351","ARG_OF_PERICENTER":"57.5646","RA_OF_ASC_NODE":"187.0409","EPOCH":"2022-05-18T11:19:04.855872","ECCENTRICITY":"0.00016630","MEAN_ANOMALY":"302.5504","TLE_LINE1":"1 47362U 21005P   22138.47158398  .00000459  00000-0  49709-4 0  9992","PERIOD":"95.592","COUNTRY_CODE":"US","EPHEMERIS_TYPE":"0","BSTAR":"0.00004970900000","INCLINATION":"53.0543","OBJECT_ID":"2021-005P","CLASSIFICATION_TYPE":"U"},{"REV_AT_EPOCH":"7334","RCS_SIZE":"LARGE","TIME_SYSTEM":"UTC","NORAD_CAT_ID":"47363","CENTER_NAME":"EARTH","FILE":"3451871","MEAN_ELEMENT_THEORY":"SGP4","MEAN_MOTION_DOT":"0.00000652","PERIAPSIS":"545.953","GP_ID":"203871422","SEMIMAJOR_AXIS":"6925.355","REF_FRAME":"TEME","APOAPSIS":"548.487","LAUNCH_DATE":"2021-01-20","MEAN_MOTION":"15.06397894","ELEMENT_SET_NO":"999","SITE":"AFETR","OBJECT_TYPE":"PAYLOAD","EPHEMERIS_TYPE":"0","TLE_LINE1":"1 47363U 21005Q   22138.40891336  .00000652  00000-0  62685-4 0  9995","PERIOD":"95.592","COUNTRY_CODE":"US","MEAN_ANOMALY":"304.9917","OBJECT_ID":"2021-005Q","CLASSIFICATION_TYPE":"U","INCLINATION":"53.0549","BSTAR":"0.00006268500000","MEAN_MOTION_DDOT":"0.0000000000000","TLE_LINE2":"2 47363  53.0549 187.3069 0001830  55.1244 304.9917 15.06397894 73340","OBJECT_NAME":"STARLINK-2077","DECAY_DATE":null,"ECCENTRICITY":"0.00018300","EPOCH":"2022-05-18T09:48:50.114304","RA_OF_ASC_NODE":"187.3069","ARG_OF_PERICENTER":"55.1244"},{"RA_OF_ASC_NODE":"335.9659","ARG_OF_PERICENTER":"293.9148","ECCENTRICITY":"0.00098360","EPOCH":"2022-05-19T03:59:57.870528","OBJECT_NAME":"STARLINK-2080","DECAY_DATE":null,"MEAN_MOTION_DDOT":"0.0000000000000","TLE_LINE2":"2 47365  53.0311 335.9659 0009836 293.9148  66.0841 15.77518742 77020","BSTAR":"0.00062022000000","OBJECT_ID":"2021-005S","CLASSIFICATION_TYPE":"U","INCLINATION":"53.0311","PERIOD":"91.283","TLE_LINE1":"1 47365U 21005S   22139.16664202  .00106102  00000-0  62022-3 0  9992","COUNTRY_CODE":"US","MEAN_ANOMALY":"66.0841","EPHEMERIS_TYPE":"0","SITE":"AFETR","OBJECT_TYPE":"PAYLOAD","MEAN_MOTION":"15.77518742","ELEMENT_SET_NO":"999","SEMIMAJOR_AXIS":"6715.610","REF_FRAME":"TEME","LAUNCH_DATE":"2021-01-20","APOAPSIS":"344.081","PERIAPSIS":"330.870","MEAN_MOTION_DOT":"0.00106102","GP_ID":"203919487","FILE":"3452827","MEAN_ELEMENT_THEORY":"SGP4","CENTER_NAME":"EARTH","RCS_SIZE":"LARGE","TIME_SYSTEM":"UTC","NORAD_CAT_ID":"47365","REV_AT_EPOCH":"7702"},{"REF_FRAME":"TEME","SEMIMAJOR_AXIS":"6925.355","LAUNCH_DATE":"2021-01-20","APOAPSIS":"548.367","GP_ID":"203880836","MEAN_MOTION_DOT":"0.00000454","PERIAPSIS":"546.073","SITE":"AFETR","OBJECT_TYPE":"PAYLOAD","MEAN_MOTION":"15.06397814","ELEMENT_SET_NO":"999","TIME_SYSTEM":"UTC","RCS_SIZE":"LARGE","NORAD_CAT_ID":"47366","REV_AT_EPOCH":"7340","FILE":"3452247","MEAN_ELEMENT_THEORY":"SGP4","CENTER_NAME":"EARTH","DECAY_DATE":null,"OBJECT_NAME":"STARLINK-2081","MEAN_MOTION_DDOT":"0.0000000000000","TLE_LINE2":"2 47366  53.0537 185.4232 0001656  49.3761 310.7371 15.06397814 73404","RA_OF_ASC_NODE":"185.4232","ARG_OF_PERICENTER":"49.3761","ECCENTRICITY":"0.00016560","EPOCH":"2022-05-18T19:59:14.133408","COUNTRY_CODE":"US","PERIOD":"95.592","TLE_LINE1":"1 47366U 21005T   22138.83280247  .00000454  00000-0  49362-4 0  9995","MEAN_ANOMALY":"310.7371","EPHEMERIS_TYPE":"0","BSTAR":"0.00004936200000","CLASSIFICATION_TYPE":"U","OBJECT_ID":"2021-005T","INCLINATION":"53.0537"},{"MEAN_ELEMENT_THEORY":"SGP4","FILE":"3452558","CENTER_NAME":"EARTH","NORAD_CAT_ID":"47367","RCS_SIZE":"LARGE","TIME_SYSTEM":"UTC","REV_AT_EPOCH":"7345","OBJECT_TYPE":"PAYLOAD","SITE":"AFETR","ELEMENT_SET_NO":"999","MEAN_MOTION":"15.06402482","APOAPSIS":"548.560","LAUNCH_DATE":"2021-01-20","SEMIMAJOR_AXIS":"6925.341","REF_FRAME":"TEME","PERIAPSIS":"545.852","MEAN_MOTION_DOT":"0.00001571","GP_ID":"203913070","BSTAR":"0.00012433000000","INCLINATION":"53.0512","OBJECT_ID":"2021-005U","CLASSIFICATION_TYPE":"U","MEAN_ANOMALY":"318.2445","TLE_LINE1":"1 47367U 21005U   22139.12399198  .00001571  00000-0  12433-3 0  9994","PERIOD":"95.592","COUNTRY_CODE":"US","EPHEMERIS_TYPE":"0","ARG_OF_PERICENTER":"41.8693","RA_OF_ASC_NODE":"184.1167","EPOCH":"2022-05-19T02:58:32.907072","ECCENTRICITY":"0.00019550","OBJECT_NAME":"STARLINK-2082","DECAY_DATE":null,"TLE_LINE2":"2 47367  53.0512 184.1167 0001955  41.8693 318.2445 15.06402482 73452","MEAN_MOTION_DDOT":"0.0000000000000"}];
